[{"OBJECT_NAME":"IRIDE FM2","OBJECT_ID":"2025-276AG","EPOCH":"2026-03-09T22:42:46.282464","MEAN_MOTION":15.18971526,"ECCENTRICITY":0.00034688,"INCLINATION":97.4252,"RA_OF_ASC_NODE":144.1705,"ARG_OF_PERICENTER":20.3269,"MEAN_ANOMALY":339.8103,"EPHEMERIS_TYPE":0,"CLASSIFICATION_TYPE":"U","NORAD_CAT_ID":66696,"ELEMENT_SET_NO":999,"REV_AT_EPOCH":1535,"BSTAR":0.00057867113,"MEAN_MOTION_DOT":0.00012043,"MEAN_MOTION_DDOT":0},{"OBJECT_NAME":"OBJECT J","OBJECT_ID":"2022-019J","EPOCH":"2026-03-09T22:43:41.570688","MEAN_MOTION":15.19970869,"ECCENTRICITY":0.00078987,"INCLINATION":97.3535,"RA_OF_ASC_NODE":134.3032,"ARG_OF_PERICENTER":206.0852,"MEAN_ANOMALY":153.9986,"EPHEMERIS_TYPE":0,"CLASSIFICATION_TYPE":"U","NORAD_CAT_ID":51832,"ELEMENT_SET_NO":999,"REV_AT_EPOCH":22272,"BSTAR":8.5341526e-5,"MEAN_MOTION_DOT":1.77e-5,"MEAN_MOTION_DDOT":0}]
